PROBA-1                 
1 26958U 01049B   22345.40655797  .00001189  00000+0  10347-3 0  9999
2 26958  97.8483 305.5258 0071948 113.1013 247.7813 14.96946806150942
BIRD 2                  
1 26959U 01049C   22344.86889717  .00022344  00000+0  39797-3 0  9996
2 26959  97.7652  89.2358 0006656  97.4146 262.7861 15.50117514174215
CUTE-1 (CO-55)          
1 27844U 03031E   22344.97637266  .00000297  00000+0  15272-3 0  9990
2 27844  98.6792 350.0161 0009067 315.4037  44.6411 14.22555479  9002
CUBESAT XI-IV (CO-57)   
1 27848U 03031J   22345.27650901  .00000256  00000+0  13540-3 0  9990
2 27848  98.6834 350.7897 0009147 330.2643  29.8013 14.22098341  8847
GENESIS 1               
1 29252U 06029A   22345.08219353  .00005308  00000+0  23008-3 0  9995
2 29252  64.5203 210.3957 0048409 235.7230 123.9307 15.22473770905913
FALCONSAT-3             
1 30776U 07006E   22344.96553607  .00200389  00000+0  10684-2 0  9994
2 30776  35.4200 168.6642 0007761 355.0628   5.0035 15.78813616877205
GENESIS 2               
1 31789U 07028A   22344.82625395  .00006901  00000+0  30193-3 0  9994
2 31789  64.4963 254.8805 0058991 288.3638  71.1076 15.21312793852713
APRIZESAT 4             
1 35684U 09041D   22344.79088054  .00000648  00000+0  92062-4 0  9996
2 35684  98.3022   4.4331 0047372 144.7230 215.7132 14.79863043721142
APRIZESAT 3             
1 35686U 09041F   22345.21077792  .00001146  00000+0  12498-3 0  9991
2 35686  98.1029  75.7929 0070901 329.5338  30.1767 14.88292761724946
PROBA-2                 
1 36037U 09059B   22345.09802521  .00000269  00000+0  75429-4 0  9992
2 36037  98.2207 168.3950 0012274 285.9640  74.0204 14.53342853695006
APRIZESAT 5             
1 37792U 11044E   22345.45592963  .00000717  00000+0  10958-3 0  9997
2 37792  98.2990 225.8473 0057875 158.7297 201.6337 14.75993046609240
APRIZESAT 6             
1 37793U 11044F   22345.22616448  .00000705  00000+0  11674-3 0  9991
2 37793  98.3768 203.1007 0045690 214.2319 262.8001 14.72977492608039
PROBA-V                 
1 39159U 13021A   22345.55138815  .00000046  00000+0  38350-4 0  9998
2 39159  98.3387  12.3534 0003104 301.5707  58.5169 14.23063875498516
STPSAT-3                
1 39380U 13064A   22345.22560172  .00077000  00000+0  95696-3 0  9999
2 39380  40.4984  44.6169 0009444 136.8934 223.2629 15.58909189508384
APRIZESAT 7             
1 39416U 13066A   22344.80432987  .00000970  00000+0  11862-3 0  9991
2 39416  97.5950 316.3524 0041509 135.3340 225.1232 14.84788076490207
APRIZESAT 8             
1 39425U 13066K   22345.44675284  .00000796  00000+0  10476-3 0  9997
2 39425  97.6525 308.7568 0051116 179.1963 180.9342 14.81909862489440
BUGSAT-1 (TITA)         
1 40014U 14033E   22344.99047435  .00003210  00000+0  27832-3 0  9996
2 40014  98.1446 350.7388 0030096 169.6809 190.5038 14.97524755462551
SAUDISAT 4              
1 40016U 14033G   22345.07734818  .00000646  00000+0  99962-4 0  9990
2 40016  97.6342 170.2044 0046606 288.9764  70.6399 14.75733066456469
APRIZESAT 9             
1 40018U 14033J   22345.40807013  .00000466  00000+0  81863-4 0  9998
2 40018  97.7294 146.6922 0070973   6.5814 353.6308 14.70452069454787
APRIZESAT 10            
1 40019U 14033K   22345.37858634  .00000431  00000+0  80286-4 0  9990
2 40019  97.7889 136.7283 0084778  52.4459 308.4409 14.67484644453926
TDS 1                   
1 40076U 14037H   22345.13216433  .00002757  00000+0  31864-3 0  9996
2 40076  98.3650 227.3464 0005700 213.0906 146.9952 14.86469724456025
TIANTUO 2               
1 40144U 14053B   22345.43430646  .00008195  00000+0  20637-3 0  9995
2 40144  97.1814  61.9587 0008569 281.6709 138.7240 15.40124749462310
TECHNOSAT               
1 42829U 17042E   22345.46382332  .00001982  00000+0  19846-3 0  9996
2 42829  97.3990 189.1319 0014897 130.6183 229.6336 14.92366847294485
FLYING LAPTOP           
1 42831U 17042G   22344.78456882  .00001736  00000+0  17530-3 0  9990
2 42831  97.3999 188.8364 0014756 133.6125 226.6356 14.92183879294386
HAWK-A                  
1 43765U 18099H   22345.16334956  .00001876  00000+0  16443-3 0  9997
2 43765  97.5990  48.5744 0015372  40.9949 319.2426 14.97749459219582
HAWK-B                  
1 43794U 18099AN  22344.76288802  .00001858  00000+0  16294-3 0  9996
2 43794  97.5992  48.1847 0015435  42.5723 317.6693 14.97744042219518
HAWK-C                  
1 43799U 18099AT  22345.16352725  .00001846  00000+0  16190-3 0  9994
2 43799  97.5987  48.4797 0015298  40.9901 319.2468 14.97747352219572
SALSAT                  
1 46495U 20068K   22344.82983985  .00003200  00000+0  22656-3 0  9999
2 46495  97.7504 286.4387 0017730  44.5169 315.7478 15.05443772120711
